{
  "links" : {
    "next" : "https://api.nasa.gov/neo/rest/v1/feed?start_date=1995-04-23&end_date=1995-04-23&detailed=true&api_key=t0TVs3DtDT2H8Oy2Zy8m2eVrNsAVKAexjcZXUckd",
    "prev" : "https://api.nasa.gov/neo/rest/v1/feed?start_date=1995-04-21&end_date=1995-04-21&detailed=true&api_key=t0TVs3DtDT2H8Oy2Zy8m2eVrNsAVKAexjcZXUckd",
    "self" : "https://api.nasa.gov/neo/rest/v1/feed?start_date=1995-04-22&end_date=1995-04-22&detailed=true&api_key=t0TVs3DtDT2H8Oy2Zy8m2eVrNsAVKAexjcZXUckd"
  },
  "element_count" : 4,
  "near_earth_objects" : {
    "1995-04-22" : [ {
      "links" : {
        "self" : "https://api.nasa.gov/neo/rest/v1/neo/3373683?api_key=t0TVs3DtDT2H8Oy2Zy8m2eVrNsAVKAexjcZXUckd"
      },
      "neo_reference_id" : "3373683",
      "name" : "(2007 GS3)",
      "nasa_jpl_url" : "http://ssd.jpl.nasa.gov/sbdb.cgi?sstr=3373683",
      "absolute_magnitude_h" : 19.4,
      "estimated_diameter" : {
        "kilometers" : {
          "estimated_diameter_min" : 0.3503926411,
          "estimated_diameter_max" : 0.7835017643
        },
        "meters" : {
          "estimated_diameter_min" : 350.3926411083,
          "estimated_diameter_max" : 783.5017643338
        },
        "miles" : {
          "estimated_diameter_min" : 0.2177238258,
          "estimated_diameter_max" : 0.4868452748
        },
        "feet" : {
          "estimated_diameter_min" : 1149.5821926537,
          "estimated_diameter_max" : 2570.543928497
        }
      },
      "is_potentially_hazardous_asteroid" : true,
      "close_approach_data" : [ {
        "close_approach_date" : "1995-04-22",
        "epoch_date_close_approach" : 798534000000,
        "relative_velocity" : {
          "kilometers_per_second" : "9.3048655227",
          "kilometers_per_hour" : "33497.5158818422",
          "miles_per_hour" : "20814.0536878035"
        },
        "miss_distance" : {
          "astronomical" : "0.0362417486",
          "lunar" : "14.0980396271",
          "kilometers" : "5421688.5",
          "miles" : "3368881"
        },
        "orbiting_body" : "Earth"
      } ],
      "orbital_data" : {
        "orbit_id" : "44",
        "orbit_determination_date" : "2017-05-03 06:18:20",
        "orbit_uncertainty" : "1",
        "minimum_orbit_intersection" : ".0215286",
        "jupiter_tisserand_invariant" : "5.768",
        "epoch_osculation" : "2457800.5",
        "eccentricity" : ".1290438595815365",
        "semi_major_axis" : "1.061197120692007",
        "inclination" : "15.08972042172532",
        "ascending_node_longitude" : "215.4436355173162",
        "orbital_period" : "399.2937581924141",
        "perihelion_distance" : ".924256148461097",
        "perihelion_argument" : "61.17301359257869",
        "aphelion_distance" : "1.198138092922917",
        "perihelion_time" : "2457865.405627994874",
        "mean_anomaly" : "301.4816144786948",
        "mean_motion" : ".9015918546528368",
        "equinox" : "J2000"
      }
    }, {
      "links" : {
        "self" : "https://api.nasa.gov/neo/rest/v1/neo/3719206?api_key=t0TVs3DtDT2H8Oy2Zy8m2eVrNsAVKAexjcZXUckd"
      },
      "neo_reference_id" : "3719206",
      "name" : "(2015 JC2)",
      "nasa_jpl_url" : "http://ssd.jpl.nasa.gov/sbdb.cgi?sstr=3719206",
      "absolute_magnitude_h" : 21.0,
      "estimated_diameter" : {
        "kilometers" : {
          "estimated_diameter_min" : 0.1677084622,
          "estimated_diameter_max" : 0.3750075218
        },
        "meters" : {
          "estimated_diameter_min" : 167.7084621628,
          "estimated_diameter_max" : 375.0075217981
        },
        "miles" : {
          "estimated_diameter_min" : 0.1042091748,
          "estimated_diameter_max" : 0.2330187988
        },
        "feet" : {
          "estimated_diameter_min" : 550.2246310023,
          "estimated_diameter_max" : 1230.3396778159
        }
      },
      "is_potentially_hazardous_asteroid" : false,
      "close_approach_data" : [ {
        "close_approach_date" : "1995-04-22",
        "epoch_date_close_approach" : 798534000000,
        "relative_velocity" : {
          "kilometers_per_second" : "26.0538805106",
          "kilometers_per_hour" : "93793.9698381571",
          "miles_per_hour" : "58279.9253141594"
        },
        "miss_distance" : {
          "astronomical" : "0.4006429748",
          "lunar" : "155.850112915",
          "kilometers" : "59935336",
          "miles" : "37242092"
        },
        "orbiting_body" : "Earth"
      } ],
      "orbital_data" : {
        "orbit_id" : "9",
        "orbit_determination_date" : "2017-08-10 06:19:11",
        "orbit_uncertainty" : "1",
        "minimum_orbit_intersection" : ".175606",
        "jupiter_tisserand_invariant" : "4.380",
        "epoch_osculation" : "2458000.5",
        "eccentricity" : ".5458440282992364",
        "semi_major_axis" : "1.487152224729361",
        "inclination" : "10.42495328796337",
        "ascending_node_longitude" : "114.7292730820402",
        "orbital_period" : "662.4171450359277",
        "perihelion_distance" : ".6753990636889152",
        "perihelion_argument" : "354.1692340425912",
        "aphelion_distance" : "2.298905385769806",
        "perihelion_time" : "2457734.922679202786",
        "mean_anomaly" : "144.331764664412",
        "mean_motion" : ".543464194273647",
        "equinox" : "J2000"
      }
    }, {
      "links" : {
        "self" : "https://api.nasa.gov/neo/rest/v1/neo/3394543?api_key=t0TVs3DtDT2H8Oy2Zy8m2eVrNsAVKAexjcZXUckd"
      },
      "neo_reference_id" : "3394543",
      "name" : "(2007 VM184)",
      "nasa_jpl_url" : "http://ssd.jpl.nasa.gov/sbdb.cgi?sstr=3394543",
      "absolute_magnitude_h" : 20.9,
      "estimated_diameter" : {
        "kilometers" : {
          "estimated_diameter_min" : 0.1756123185,
          "estimated_diameter_max" : 0.3926810818
        },
        "meters" : {
          "estimated_diameter_min" : 175.6123184804,
          "estimated_diameter_max" : 392.6810818086
        },
        "miles" : {
          "estimated_diameter_min" : 0.1091204019,
          "estimated_diameter_max" : 0.2440006365
        },
        "feet" : {
          "estimated_diameter_min" : 576.1559189633,
          "estimated_diameter_max" : 1288.3238004408
        }
      },
      "is_potentially_hazardous_asteroid" : true,
      "close_approach_data" : [ {
        "close_approach_date" : "1995-04-22",
        "epoch_date_close_approach" : 798534000000,
        "relative_velocity" : {
          "kilometers_per_second" : "19.2686125665",
          "kilometers_per_hour" : "69367.0052395429",
          "miles_per_hour" : "43101.9594500927"
        },
        "miss_distance" : {
          "astronomical" : "0.4392369614",
          "lunar" : "170.8631744385",
          "kilometers" : "65708916",
          "miles" : "40829628"
        },
        "orbiting_body" : "Earth"
      } ],
      "orbital_data" : {
        "orbit_id" : "34",
        "orbit_determination_date" : "2017-09-26 06:50:10",
        "orbit_uncertainty" : "0",
        "minimum_orbit_intersection" : ".0337336",
        "jupiter_tisserand_invariant" : "5.148",
        "epoch_osculation" : "2458000.5",
        "eccentricity" : ".523263108804333",
        "semi_major_axis" : "1.182148764701506",
        "inclination" : "23.27720540354022",
        "ascending_node_longitude" : "65.77208245525733",
        "orbital_period" : "469.4686819583911",
        "perihelion_distance" : ".5635739270145939",
        "perihelion_argument" : "110.1549531441406",
        "aphelion_distance" : "1.800723602388418",
        "perihelion_time" : "2457785.992688909412",
        "mean_anomaly" : "164.4894216808606",
        "mean_motion" : ".7668243140272065",
        "equinox" : "J2000"
      }
    }, {
      "links" : {
        "self" : "https://api.nasa.gov/neo/rest/v1/neo/2489486?api_key=t0TVs3DtDT2H8Oy2Zy8m2eVrNsAVKAexjcZXUckd"
      },
      "neo_reference_id" : "2489486",
      "name" : "489486 (2007 GS3)",
      "nasa_jpl_url" : "http://ssd.jpl.nasa.gov/sbdb.cgi?sstr=2489486",
      "absolute_magnitude_h" : 19.4,
      "estimated_diameter" : {
        "kilometers" : {
          "estimated_diameter_min" : 0.3503926411,
          "estimated_diameter_max" : 0.7835017643
        },
        "meters" : {
          "estimated_diameter_min" : 350.3926411083,
          "estimated_diameter_max" : 783.5017643338
        },
        "miles" : {
          "estimated_diameter_min" : 0.2177238258,
          "estimated_diameter_max" : 0.4868452748
        },
        "feet" : {
          "estimated_diameter_min" : 1149.5821926537,
          "estimated_diameter_max" : 2570.543928497
        }
      },
      "is_potentially_hazardous_asteroid" : true,
      "close_approach_data" : [ {
        "close_approach_date" : "1995-04-22",
        "epoch_date_close_approach" : 798534000000,
        "relative_velocity" : {
          "kilometers_per_second" : "9.3048655241",
          "kilometers_per_hour" : "33497.5158868348",
          "miles_per_hour" : "20814.0536909058"
        },
        "miss_distance" : {
          "astronomical" : "0.0362417486",
          "lunar" : "14.0980396271",
          "kilometers" : "5421688.5",
          "miles" : "3368881"
        },
        "orbiting_body" : "Earth"
      } ],
      "orbital_data" : {
        "orbit_id" : "45",
        "orbit_determination_date" : "2017-05-15 19:03:44",
        "orbit_uncertainty" : "1",
        "minimum_orbit_intersection" : ".020437",
        "jupiter_tisserand_invariant" : "5.768",
        "epoch_osculation" : "2458000.5",
        "eccentricity" : ".1290153472152782",
        "semi_major_axis" : "1.061191066459368",
        "inclination" : "15.0900047631558",
        "ascending_node_longitude" : "215.4428312993687",
        "orbital_period" : "399.2903411827814",
        "perihelion_distance" : ".924281132558361",
        "perihelion_argument" : "61.18913869575113",
        "aphelion_distance" : "1.198101000360374",
        "perihelion_time" : "2457865.416955745459",
        "mean_anomaly" : "121.790814642756",
        "mean_motion" : ".9015995702115027",
        "equinox" : "J2000"
      }
    } ]
  }
}